GLOBALSTAR M023         
1 25621U 99004A   25241.18168041 -.00000039  00000+0  36237-3 0  9997
2 25621  52.0092 191.1705 0010038 289.5037  84.0598 12.62502939224951
GLOBALSTAR M040         
1 25622U 99004B   25241.29435645 -.00000062  00000+0  23333-3 0  9996
2 25622  51.9903 195.0907 0000543 175.3781 333.3514 12.62015878224483
GLOBALSTAR M036         
1 25623U 99004C   25241.18457644 -.00000054  00000+0  41569-3 0  9990
2 25623  51.9977  47.9127 0010791 186.6469 344.2118 11.86607375187649
GLOBALSTAR M038         
1 25624U 99004D   25241.25340235 -.00000061  00000+0  27922-3 0  9991
2 25624  51.9949 221.1490 0001622 205.8447 256.4424 12.32531335211388
GLOBALSTAR M022         
1 25649U 99012A   25241.08026551 -.00000095  00000+0 -95085-4 0  9994
2 25649  52.0036  92.7439 0002420 336.5117 192.5436 12.02502465185148
GLOBALSTAR M041         
1 25650U 99012B   25241.22044520 -.00000055  00000+0  39447-3 0  9992
2 25650  52.0051 336.0446 0001990 104.7895 255.3162 11.96683423187027
GLOBALSTAR M046         
1 25651U 99012C   25241.18156264 -.00000046  00000+0  46594-3 0  9998
2 25651  52.0065  39.9366 0002668  54.7275 116.6235 12.09410516192495
GLOBALSTAR M037         
1 25652U 99012D   25241.24750368 -.00000108  00000+0 -23719-4 0  9996
2 25652  52.0027 321.5655 0001752   3.5025  31.2541 12.62449502220505
